{
    "links": {
        "self": "http://www.neowsapp.com/rest/v1/neo/3991646?api_key=iIulBulltgU6a56xZRHN4H3l9WmuAYTsLGpBGhQ2"
    },
    "id": "3991646",
    "neo_reference_id": "3991646",
    "name": "(2020 DT)",
    "designation": "2020 DT",
    "nasa_jpl_url": "http://ssd.jpl.nasa.gov/sbdb.cgi?sstr=3991646",
    "absolute_magnitude_h": 27.997,
    "estimated_diameter": {
        "kilometers": {
            "estimated_diameter_min": 0.0066858246,
            "estimated_diameter_max": 0.0149499582
        },
        "meters": {
            "estimated_diameter_min": 6.6858245653,
            "estimated_diameter_max": 14.9499582137
        },
        "miles": {
            "estimated_diameter_min": 0.0041543775,
            "estimated_diameter_max": 0.0092894705
        },
        "feet": {
            "estimated_diameter_min": 21.9351206669,
            "estimated_diameter_max": 49.0484209058
        }
    },
    "is_potentially_hazardous_asteroid": false,
    "close_approach_data": [
        {
            "close_approach_date": "2020-02-12",
            "close_approach_date_full": "2020-Feb-12 10:56",
            "epoch_date_close_approach": 1581504960000,
            "relative_velocity": {
                "kilometers_per_second": "14.7223666984",
                "kilometers_per_hour": "53000.5201142339",
                "miles_per_hour": "32932.4620676472"
            },
            "miss_distance": {
                "astronomical": "0.0111723058",
                "lunar": "4.3460269562",
                "kilometers": "1671353.150668646",
                "miles": "1038530.6905174748"
            },
            "orbiting_body": "Earth"
        }
    ],
    "orbital_data": {
        "orbit_id": "2",
        "orbit_determination_date": "2020-03-10 05:55:05",
        "first_observation_date": "2020-02-16",
        "last_observation_date": "2020-02-18",
        "data_arc_in_days": 2,
        "observations_used": 17,
        "orbit_uncertainty": "8",
        "minimum_orbit_intersection": ".00230907",
        "jupiter_tisserand_invariant": "3.532",
        "epoch_osculation": "2458896.5",
        "eccentricity": ".6118395521933211",
        "semi_major_axis": "2.047937254065267",
        "inclination": "2.714596109261953",
        "ascending_node_longitude": "319.0288228683673",
        "orbital_period": "1070.467278074437",
        "perihelion_distance": ".7949282416179543",
        "perihelion_argument": "122.0785219282953",
        "aphelion_distance": "3.300946266512579",
        "perihelion_time": "2458851.520945130935",
        "mean_anomaly": "15.12653407023378",
        "mean_motion": ".3363017323122385",
        "equinox": "J2000",
        "orbit_class": {
            "orbit_class_type": "APO",
            "orbit_class_description": "Near-Earth asteroid orbits which cross the Earth’s orbit similar to that of 1862 Apollo",
            "orbit_class_range": "a (semi-major axis) > 1.0 AU; q (perihelion) < 1.017 AU"
        }
    },
    "is_sentry_object": false
}